[{"OBJECT_NAME":"RISAT-2BR2","OBJECT_ID":"2020-081A","EPOCH":"2026-03-09T12:34:56.452800","MEAN_MOTION":15.01602463,"ECCENTRICITY":0.00109054,"INCLINATION":36.898,"RA_OF_ASC_NODE":95.9121,"ARG_OF_PERICENTER":52.9142,"MEAN_ANOMALY":307.2595,"EPHEMERIS_TYPE":0,"CLASSIFICATION_TYPE":"U","NORAD_CAT_ID":46905,"ELEMENT_SET_NO":999,"REV_AT_EPOCH":29248,"BSTAR":0.00037609291,"MEAN_MOTION_DOT":4.901e-5,"MEAN_MOTION_DDOT":0},{"OBJECT_NAME":"STARLINK-34730","OBJECT_ID":"2025-158G","EPOCH":"2026-03-09T13:46:44.323104","MEAN_MOTION":15.05650418,"ECCENTRICITY":0.0001899,"INCLINATION":97.6029,"RA_OF_ASC_NODE":294.0445,"ARG_OF_PERICENTER":87.0605,"MEAN_ANOMALY":273.0839,"EPHEMERIS_TYPE":0,"CLASSIFICATION_TYPE":"U","NORAD_CAT_ID":64938,"ELEMENT_SET_NO":999,"REV_AT_EPOCH":3534,"BSTAR":0.00027579,"MEAN_MOTION_DOT":3.921e-5,"MEAN_MOTION_DDOT":0}]
